{"type": "FeatureCollection", "features": [ {"type": "Feature", "properties": {"norad_id": 38122, "name": "FENGYUN 1C DEB", "group": "fengyun-1c-debris", "lat": 12.649173809160965, "lon": -15.182472115258987, "alt_km": 892.9763540597596, "timestamp": "2025-12-10T04:57:29.907983+00:00", "meta": {"OBJECT_NAME": "FENGYUN 1C DEB", "OBJECT_ID": "1999-025EPT", "EPOCH": "2025-12-08T17:56:21.579072", "MEAN_MOTION": 14.42629891, "ECCENTRICITY": 0.02276377, "INCLINATION": 98.3144, "RA_OF_ASC_NODE": 345.2742, "ARG_OF_PERICENTER": 168.9943, "MEAN_ANOMALY": 191.635, "EPHEMERIS_TYPE": 0, "CLASSIFICATION_TYPE": "U", "NORAD_CAT_ID": 38122, "ELEMENT_SET_NO": 999, "REV_AT_EPOCH": 67681, "BSTAR": 0.00073738447, "MEAN_MOTION_DOT": 3.3e-05, "MEAN_MOTION_DDOT": 0}, "tle": {"line1": "1 38122U 99025EPT 25342.74747198  .00003300  00000+0  73738-3 0  9990", "line2": "2 38122  98.3144 345.2742 0227637 168.9943 191.6350 14.42629891676810"}}, "geometry": {"type": "Point", "coordinates": [-15.182472115258987, 12.649173809160965]}}, {"type": "Feature", "properties": {"norad_id": 38124, "name": "FENGYUN 1C DEB", "group": "fengyun-1c-debris", "lat": 28.268679005277814, "lon": 121.5815562834122, "alt_km": 1356.6162133252901, "timestamp": "2025-12-10T04:57:29.907993+00:00", "meta": {"OBJECT_NAME": "FENGYUN 1C DEB", "OBJECT_ID": "1999-025EPV", "EPOCH": "2025-11-17T02:51:17.993664", "MEAN_MOTION": 13.40908773, "ECCENTRICITY": 0.03570409, "INCLINATION": 97.805, "RA_OF_ASC_NODE": 279.4801, "ARG_OF_PERICENTER": 12.4947, "MEAN_ANOMALY": 348.4759, "EPHEMERIS_TYPE": 0, "CLASSIFICATION_TYPE": "U", "NORAD_CAT_ID": 38124, "ELEMENT_SET_NO": 999, "REV_AT_EPOCH": 54238, "BSTAR": 0.00079426358, "MEAN_MOTION_DOT": 6.08e-06, "MEAN_MOTION_DDOT": 0}, "tle": {"line1": "1 38124U 99025EPV 25321.11895826  .00000608  00000+0  79426-3 0  9990", "line2": "2 38124  97.8050 279.4801 0357040  12.4947 348.4759 13.40908773542380"}}, "geometry": {"type": "Point", "coordinates": [121.5815562834122, 28.268679005277814]}}, {"type": "Feature", "properties": {"norad_id": 38130, "name": "FENGYUN 1C DEB", "group": "fengyun-1c-debris", "lat": -60.99211005730483, "lon": -159.69565061530787, "alt_km": 829.9281571510883, "timestamp": "2025-12-10T04:57:29.908003+00:00", "meta": {"OBJECT_NAME": "FENGYUN 1C DEB", "OBJECT_ID": "1999-025EQB", "EPOCH": "2025-11-28T09:19:02.490528", "MEAN_MOTION": 13.7720595, "ECCENTRICITY": 0.02085156, "INCLINATION": 98.6035, "RA_OF_ASC_NODE": 25.4413, "ARG_OF_PERICENTER": 263.5047, "MEAN_ANOMALY": 94.2329, "EPHEMERIS_TYPE": 0, "CLASSIFICATION_TYPE": "U", "NORAD_CAT_ID": 38130, "ELEMENT_SET_NO": 999, "REV_AT_EPOCH": 69085, "BSTAR": 0.0016964005, "MEAN_MOTION_DOT": 1.933e-05, "MEAN_MOTION_DDOT": 0}, "tle": {"line1": "1 38130U 99025EQB 25332.38822327  .00001933  00000+0  16964-2 0  9993", "line2": "2 38130  98.6035  25.4413 0208515 263.5047  94.2329 13.77205950690851"}}, "geometry": {"type": "Point", "coordinates": [-159.69565061530787, -60.99211005730483]}}, {"type": "Feature", "properties": {"norad_id": 38135, "name": "FENGYUN 1C DEB", "group": "fengyun-1c-debris", "lat": 0.7910338800993844, "lon": -138.8591866791444, "alt_km": 835.8666254165855, "timestamp": "2025-12-10T04:57:29.908013+00:00", "meta": {"OBJECT_NAME": "FENGYUN 1C DEB", "OBJECT_ID": "1999-025EQG", "EPOCH": "2025-12-04T09:59:10.811040", "MEAN_MOTION": 14.2524882, "ECCENTRICITY": 0.0223375, "INCLINATION": 98.6606, "RA_OF_ASC_NODE": 35.2993, "ARG_OF_PERICENTER": 95.5388, "MEAN_ANOMALY": 267.1312, "EPHEMERIS_TYPE": 0, "CLASSIFICATION_TYPE": "U", "NORAD_CAT_ID": 38135, "ELEMENT_SET_NO": 999, "REV_AT_EPOCH": 60922, "BSTAR": 0.00083169, "MEAN_MOTION_DOT": 2.494e-05, "MEAN_MOTION_DDOT": 0}, "tle": {"line1": "1 38135U 99025EQG 25338.41609735  .00002494  00000+0  83169-3 0  9999", "line2": "2 38135  98.6606  35.2993 0223375  95.5388 267.1312 14.25248820609225"}}, "geometry": {"type": "Point", "coordinates": [-138.8591866791444, 0.7910338800993844]}}, {"type": "Feature", "properties": {"norad_id": 38137, "name": "FENGYUN 1C DEB", "group": "fengyun-1c-debris", "lat": -25.210796010801257, "lon": 31.219002271670593, "alt_km": 884.8107056134904, "timestamp": "2025-12-10T04:57:29.908023+00:00", "meta": {"OBJECT_NAME": "FENGYUN 1C DEB", "OBJECT_ID": "1999-025EQJ", "EPOCH": "2025-12-08T08:40:42.880224", "MEAN_MOTION": 14.06153212, "ECCENTRICITY": 0.00466397, "INCLINATION": 98.8652, "RA_OF_ASC_NODE": 25.1992, "ARG_OF_PERICENTER": 81.4728, "MEAN_ANOMALY": 279.1722, "EPHEMERIS_TYPE": 0, "CLASSIFICATION_TYPE": "U", "NORAD_CAT_ID": 38137, "ELEMENT_SET_NO": 999, "REV_AT_EPOCH": 63647, "BSTAR": 0.00042696798, "MEAN_MOTION_DOT": 6.66e-06, "MEAN_MOTION_DDOT": 0}, "tle": {"line1": "1 38137U 99025EQJ 25342.36160741  .00000666  00000+0  42697-3 0  9999", "line2": "2 38137  98.8652  25.1992 0046639  81.4728 279.1722 14.06153212636479"}}, "geometry": {"type": "Point", "coordinates": [31.219002271670593, -25.210796010801257]}}, {"type": "Feature", "properties": {"norad_id": 38143, "name": "FENGYUN 1C DEB", "group": "fengyun-1c-debris", "lat": 64.83830936794743, "lon": -120.08822481643801, "alt_km": 887.2530005793506, "timestamp": "2025-12-10T04:57:29.908033+00:00", "meta": {"OBJECT_NAME": "FENGYUN 1C DEB", "OBJECT_ID": "1999-025EQQ", "EPOCH": "2025-12-02T22:04:03.833184", "MEAN_MOTION": 14.04865193, "ECCENTRICITY": 0.00557173, "INCLINATION": 99.0286, "RA_OF_ASC_NODE": 32.8796, "ARG_OF_PERICENTER": 248.4749, "MEAN_ANOMALY": 111.0473, "EPHEMERIS_TYPE": 0, "CLASSIFICATION_TYPE": "U", "NORAD_CAT_ID": 38143, "ELEMENT_SET_NO": 999, "REV_AT_EPOCH": 60145, "BSTAR": 0.00072272115, "MEAN_MOTION_DOT": 1.132e-05, "MEAN_MOTION_DDOT": 0}, "tle": {"line1": "1 38143U 99025EQQ 25336.91948881  .00001132  00000+0  72272-3 0  9990", "line2": "2 38143  99.0286  32.8796 0055717 248.4749 111.0473 14.04865193601457"}}, "geometry": {"type": "Point", "coordinates": [-120.08822481643801, 64.83830936794743]}}, {"type": "Feature", "properties": {"norad_id": 38144, "name": "FENGYUN 1C DEB", "group": "fengyun-1c-debris", "lat": 11.415727505327617, "lon": -9.293289316570913, "alt_km": 852.105299027352, "timestamp": "2025-12-10T04:57:29.908043+00:00", "meta": {"OBJECT_NAME": "FENGYUN 1C DEB", "OBJECT_ID": "1999-025EQR", "EPOCH": "2025-12-06T18:50:18.188736", "MEAN_MOTION": 13.58996944, "ECCENTRICITY": 0.02905665, "INCLINATION": 98.9685, "RA_OF_ASC_NODE": 165.7451, "ARG_OF_PERICENTER": 207.0505, "MEAN_ANOMALY": 151.5239, "EPHEMERIS_TYPE": 0, "CLASSIFICATION_TYPE": "U", "NORAD_CAT_ID": 38144, "ELEMENT_SET_NO": 999, "REV_AT_EPOCH": 60956, "BSTAR": 0.0028636458, "MEAN_MOTION_DOT": 2.734e-05, "MEAN_MOTION_DDOT": 0}, "tle": {"line1": "1 38144U 99025EQR 25340.78493274  .00002734  00000+0  28636-2 0  9995", "line2": "2 38144  98.9685 165.7451 0290566 207.0505 151.5239 13.58996944609563"}}, "geometry": {"type": "Point", "coordinates": [-9.293289316570913, 11.415727505327617]}}, {"type": "Feature", "properties": {"norad_id": 38146, "name": "FENGYUN 1C DEB", "group": "fengyun-1c-debris", "lat": -77.61058978503422, "lon": -165.19769150077818, "alt_km": 828.5229717255334, "timestamp": "2025-12-10T04:57:29.908053+00:00", "meta": {"OBJECT_NAME": "FENGYUN 1C DEB", "OBJECT_ID": "1999-025EQT", "EPOCH": "2025-12-03T10:45:50.404320", "MEAN_MOTION": 14.59033464, "ECCENTRICITY": 0.02030621, "INCLINATION": 99.485, "RA_OF_ASC_NODE": 56.6441, "ARG_OF_PERICENTER": 130.793, "MEAN_ANOMALY": 291.7125, "EPHEMERIS_TYPE": 0, "CLASSIFICATION_TYPE": "U", "NORAD_CAT_ID": 38146, "ELEMENT_SET_NO": 999, "REV_AT_EPOCH": 31744, "BSTAR": 0.0015249301, "MEAN_MOTION_DOT": 9.498e-05, "MEAN_MOTION_DDOT": 0}, "tle": {"line1": "1 38146U 99025EQT 25337.44850005  .00009498  00000+0  15249-2 0  9995", "line2": "2 38146  99.4850  56.6441 0203062 130.7930 291.7125 14.59033464317446"}}, "geometry": {"type": "Point", "coordinates": [-165.19769150077818, -77.61058978503422]}}, {"type": "Feature", "properties": {"norad_id": 38147, "name": "FENGYUN 1C DEB", "group": "fengyun-1c-debris", "lat": 33.67350313540694, "lon": -7.258950379330463, "alt_km": 809.1336115807089, "timestamp": "2025-12-10T04:57:29.908063+00:00", "meta": {"OBJECT_NAME": "FENGYUN 1C DEB", "OBJECT_ID": "1999-025EQU", "EPOCH": "2025-12-09T18:40:37.432128", "MEAN_MOTION": 14.2343176, "ECCENTRICITY": 0.0049748, "INCLINATION": 98.5592, "RA_OF_ASC_NODE": 358.0831, "ARG_OF_PERICENTER": 309.111, "MEAN_ANOMALY": 50.5651, "EPHEMERIS_TYPE": 0, "CLASSIFICATION_TYPE": "U", "NORAD_CAT_ID": 38147, "ELEMENT_SET_NO": 999, "REV_AT_EPOCH": 60345, "BSTAR": 0.00097237, "MEAN_MOTION_DOT": 2.194e-05, "MEAN_MOTION_DDOT": 0}, "tle": {"line1": "1 38147U 99025EQU 25343.77821102  .00002194  00000+0  97237-3 0  9999", "line2": "2 38147  98.5592 358.0831 0049748 309.1110  50.5651 14.23431760603459"}}, "geometry": {"type": "Point", "coordinates": [-7.258950379330463, 33.67350313540694]}}, {"type": "Feature", "properties": {"norad_id": 38149, "name": "FENGYUN 1C DEB", "group": "fengyun-1c-debris", "lat": 26.935683219978444, "lon": 160.8420063909976, "alt_km": 750.637684144549, "timestamp": "2025-12-10T04:57:29.908073+00:00", "meta": {"OBJECT_NAME": "FENGYUN 1C DEB", "OBJECT_ID": "1999-025EQW", "EPOCH": "2025-12-07T17:18:01.960128", "MEAN_MOTION": 14.25910713, "ECCENTRICITY": 0.00777044, "INCLINATION": 98.3566, "RA_OF_ASC_NODE": 334.1881, "ARG_OF_PERICENTER": 175.9559, "MEAN_ANOMALY": 184.2267, "EPHEMERIS_TYPE": 0, "CLASSIFICATION_TYPE": "U", "NORAD_CAT_ID": 38149, "ELEMENT_SET_NO": 999, "REV_AT_EPOCH": 70416, "BSTAR": 0.00036135678, "MEAN_MOTION_DOT": 8.47e-06, "MEAN_MOTION_DDOT": 0}, "tle": {"line1": "1 38149U 99025EQW 25341.72085602  .00000847  00000+0  36136-3 0  9995", "line2": "2 38149  98.3566 334.1881 0077704 175.9559 184.2267 14.25910713704169"}}, "geometry": {"type": "Point", "coordinates": [160.8420063909976, 26.935683219978444]}}]}